OPS-SAT                 
1 44878U 19092F   23089.05495676  .00038972  00000+0  13383-2 0  9994
2 44878  97.4788 277.0141 0009475  61.7692 298.4504 15.2998094718167